{"type": "FeatureCollection", "features": [ {"type": "Feature", "properties": {"norad_id": 37528, "name": "COSMOS 2251 DEB", "group": "cosmos-2251-debris", "lat": 60.42241210376253, "lon": -83.45105835888576, "alt_km": 731.7863018512571, "timestamp": "2025-12-10T05:46:14.224434+00:00", "meta": {"OBJECT_NAME": "COSMOS 2251 DEB", "OBJECT_ID": "1993-036BNH", "EPOCH": "2025-12-08T16:49:26.649696", "MEAN_MOTION": 14.50498376, "ECCENTRICITY": 0.00210456, "INCLINATION": 74.0372, "RA_OF_ASC_NODE": 129.7266, "ARG_OF_PERICENTER": 278.202, "MEAN_ANOMALY": 81.6753, "EPHEMERIS_TYPE": 0, "CLASSIFICATION_TYPE": "U", "NORAD_CAT_ID": 37528, "ELEMENT_SET_NO": 999, "REV_AT_EPOCH": 85872, "BSTAR": 0.00091460645, "MEAN_MOTION_DOT": 3.563e-05, "MEAN_MOTION_DDOT": 0}, "tle": {"line1": "1 37528U 93036BNH 25342.70100289  .00003563  00000+0  91461-3 0  9999", "line2": "2 37528  74.0372 129.7266 0021045 278.2020  81.6753 14.50498376858723"}}, "geometry": {"type": "Point", "coordinates": [-83.45105835888576, 60.42241210376253]}}, {"type": "Feature", "properties": {"norad_id": 37530, "name": "COSMOS 2251 DEB", "group": "cosmos-2251-debris", "lat": 11.29786070005285, "lon": 154.94871801740027, "alt_km": 788.5402974631097, "timestamp": "2025-12-10T05:46:14.224444+00:00", "meta": {"OBJECT_NAME": "COSMOS 2251 DEB", "OBJECT_ID": "1993-036BNK", "EPOCH": "2025-11-30T19:50:14.646624", "MEAN_MOTION": 14.34478642, "ECCENTRICITY": 0.00255427, "INCLINATION": 74.0356, "RA_OF_ASC_NODE": 355.4602, "ARG_OF_PERICENTER": 61.4891, "MEAN_ANOMALY": 111.2815, "EPHEMERIS_TYPE": 0, "CLASSIFICATION_TYPE": "U", "NORAD_CAT_ID": 37530, "ELEMENT_SET_NO": 999, "REV_AT_EPOCH": 85061, "BSTAR": 0.00021143929, "MEAN_MOTION_DOT": 5.72e-06, "MEAN_MOTION_DDOT": 0}, "tle": {"line1": "1 37530U 93036BNK 25334.82655841  .00000572  00000+0  21144-3 0  9993", "line2": "2 37530  74.0356 355.4602 0025542  61.4891 111.2815 14.34478642850619"}}, "geometry": {"type": "Point", "coordinates": [154.94871801740027, 11.29786070005285]}}, {"type": "Feature", "properties": {"norad_id": 37532, "name": "COSMOS 2251 DEB", "group": "cosmos-2251-debris", "lat": -53.80726843605071, "lon": 63.36045524261738, "alt_km": 756.0530414372433, "timestamp": "2025-12-10T05:46:14.224454+00:00", "meta": {"OBJECT_NAME": "COSMOS 2251 DEB", "OBJECT_ID": "1993-036BNM", "EPOCH": "2025-12-07T10:55:32.240064", "MEAN_MOTION": 14.42395579, "ECCENTRICITY": 0.00158251, "INCLINATION": 74.0509, "RA_OF_ASC_NODE": 225.5137, "ARG_OF_PERICENTER": 327.0165, "MEAN_ANOMALY": 213.451, "EPHEMERIS_TYPE": 0, "CLASSIFICATION_TYPE": "U", "NORAD_CAT_ID": 37532, "ELEMENT_SET_NO": 999, "REV_AT_EPOCH": 84839, "BSTAR": 0.00041437252, "MEAN_MOTION_DOT": 1.346e-05, "MEAN_MOTION_DDOT": 0}, "tle": {"line1": "1 37532U 93036BNM 25341.45523426  .00001346  00000+0  41437-3 0  9992", "line2": "2 37532  74.0509 225.5137 0015825 327.0165 213.4510 14.42395579848394"}}, "geometry": {"type": "Point", "coordinates": [63.36045524261738, -53.80726843605071]}}, {"type": "Feature", "properties": {"norad_id": 37533, "name": "COSMOS 2251 DEB", "group": "cosmos-2251-debris", "lat": -56.88065075040626, "lon": 42.17559894071129, "alt_km": 747.257936826596, "timestamp": "2025-12-10T05:46:14.224464+00:00", "meta": {"OBJECT_NAME": "COSMOS 2251 DEB", "OBJECT_ID": "1993-036BNN", "EPOCH": "2025-12-09T08:13:21.048672", "MEAN_MOTION": 14.12141877, "ECCENTRICITY": 0.01580542, "INCLINATION": 74.0693, "RA_OF_ASC_NODE": 197.7932, "ARG_OF_PERICENTER": 255.2214, "MEAN_ANOMALY": 103.1369, "EPHEMERIS_TYPE": 0, "CLASSIFICATION_TYPE": "U", "NORAD_CAT_ID": 37533, "ELEMENT_SET_NO": 999, "REV_AT_EPOCH": 62873, "BSTAR": 0.0019484338, "MEAN_MOTION_DOT": 4e-05, "MEAN_MOTION_DDOT": 0}, "tle": {"line1": "1 37533U 93036BNN 25343.34260473  .00004000  00000+0  19484-2 0  9999", "line2": "2 37533  74.0693 197.7932 0158054 255.2214 103.1369 14.12141877628739"}}, "geometry": {"type": "Point", "coordinates": [42.17559894071129, -56.88065075040626]}}, {"type": "Feature", "properties": {"norad_id": 37535, "name": "COSMOS 2251 DEB", "group": "cosmos-2251-debris", "lat": 67.21332908938886, "lon": -144.73495741969612, "alt_km": 698.3558405802778, "timestamp": "2025-12-10T05:46:14.224474+00:00", "meta": {"OBJECT_NAME": "COSMOS 2251 DEB", "OBJECT_ID": "1993-036BNQ", "EPOCH": "2025-12-09T12:53:25.433952", "MEAN_MOTION": 14.58418481, "ECCENTRICITY": 0.0027902, "INCLINATION": 74.0239, "RA_OF_ASC_NODE": 79.6012, "ARG_OF_PERICENTER": 218.8446, "MEAN_ANOMALY": 156.6202, "EPHEMERIS_TYPE": 0, "CLASSIFICATION_TYPE": "U", "NORAD_CAT_ID": 37535, "ELEMENT_SET_NO": 999, "REV_AT_EPOCH": 85278, "BSTAR": 0.0012987, "MEAN_MOTION_DOT": 6.029e-05, "MEAN_MOTION_DDOT": 0}, "tle": {"line1": "1 37535U 93036BNQ 25343.53709993  .00006029  00000+0  12987-2 0  9991", "line2": "2 37535  74.0239  79.6012 0027902 218.8446 156.6202 14.58418481852784"}}, "geometry": {"type": "Point", "coordinates": [-144.73495741969612, 67.21332908938886]}}, {"type": "Feature", "properties": {"norad_id": 37537, "name": "COSMOS 2251 DEB", "group": "cosmos-2251-debris", "lat": 50.52991324009272, "lon": 69.35859519432225, "alt_km": 752.93433599317, "timestamp": "2025-12-10T05:46:14.224485+00:00", "meta": {"OBJECT_NAME": "COSMOS 2251 DEB", "OBJECT_ID": "1993-036BNS", "EPOCH": "2025-12-09T12:29:10.768128", "MEAN_MOTION": 14.37484437, "ECCENTRICITY": 0.0050171, "INCLINATION": 74.0126, "RA_OF_ASC_NODE": 271.0599, "ARG_OF_PERICENTER": 52.0815, "MEAN_ANOMALY": 308.4858, "EPHEMERIS_TYPE": 0, "CLASSIFICATION_TYPE": "U", "NORAD_CAT_ID": 37537, "ELEMENT_SET_NO": 999, "REV_AT_EPOCH": 84987, "BSTAR": 0.00041012, "MEAN_MOTION_DOT": 1.22e-05, "MEAN_MOTION_DDOT": 0}, "tle": {"line1": "1 37537U 93036BNS 25343.52026352  .00001220  00000+0  41012-3 0  9993", "line2": "2 37537  74.0126 271.0599 0050171  52.0815 308.4858 14.37484437849872"}}, "geometry": {"type": "Point", "coordinates": [69.35859519432225, 50.52991324009272]}}, {"type": "Feature", "properties": {"norad_id": 37546, "name": "COSMOS 2251 DEB", "group": "cosmos-2251-debris", "lat": 1.3608223776214676, "lon": -77.45340551634163, "alt_km": 628.1294671383212, "timestamp": "2025-12-10T05:46:14.224495+00:00", "meta": {"OBJECT_NAME": "COSMOS 2251 DEB", "OBJECT_ID": "1993-036BPB", "EPOCH": "2025-12-07T02:21:17.919648", "MEAN_MOTION": 14.80155071, "ECCENTRICITY": 0.00062314, "INCLINATION": 74.021, "RA_OF_ASC_NODE": 109.1315, "ARG_OF_PERICENTER": 130.3601, "MEAN_ANOMALY": 229.812, "EPHEMERIS_TYPE": 0, "CLASSIFICATION_TYPE": "U", "NORAD_CAT_ID": 37546, "ELEMENT_SET_NO": 999, "REV_AT_EPOCH": 65804, "BSTAR": 0.0044829614, "MEAN_MOTION_DOT": 0.00034195, "MEAN_MOTION_DDOT": 0}, "tle": {"line1": "1 37546U 93036BPB 25341.09812407  .00034195  00000+0  44830-2 0  9994", "line2": "2 37546  74.0210 109.1315 0006231 130.3601 229.8120 14.80155071658046"}}, "geometry": {"type": "Point", "coordinates": [-77.45340551634163, 1.3608223776214676]}}, {"type": "Feature", "properties": {"norad_id": 37959, "name": "COSMOS 2251 DEB", "group": "cosmos-2251-debris", "lat": -31.64631751297223, "lon": -108.11363958693562, "alt_km": 664.2466427407717, "timestamp": "2025-12-10T05:46:14.224505+00:00", "meta": {"OBJECT_NAME": "COSMOS 2251 DEB", "OBJECT_ID": "1993-036BPJ", "EPOCH": "2025-12-08T23:58:46.135776", "MEAN_MOTION": 14.58104698, "ECCENTRICITY": 0.0058089, "INCLINATION": 74.0114, "RA_OF_ASC_NODE": 64.0723, "ARG_OF_PERICENTER": 207.6848, "MEAN_ANOMALY": 332.0544, "EPHEMERIS_TYPE": 0, "CLASSIFICATION_TYPE": "U", "NORAD_CAT_ID": 37959, "ELEMENT_SET_NO": 999, "REV_AT_EPOCH": 80072, "BSTAR": 0.0010164, "MEAN_MOTION_DOT": 4.763e-05, "MEAN_MOTION_DDOT": 0}, "tle": {"line1": "1 37959U 93036BPJ 25342.99914509  .00004763  00000+0  10164-2 0  9999", "line2": "2 37959  74.0114  64.0723 0058089 207.6848 332.0544 14.58104698800723"}}, "geometry": {"type": "Point", "coordinates": [-108.11363958693562, -31.64631751297223]}}, {"type": "Feature", "properties": {"norad_id": 37960, "name": "COSMOS 2251 DEB", "group": "cosmos-2251-debris", "lat": 17.22920353282556, "lon": 6.188704092028738, "alt_km": 745.0198428396425, "timestamp": "2025-12-10T05:46:14.224515+00:00", "meta": {"OBJECT_NAME": "COSMOS 2251 DEB", "OBJECT_ID": "1993-036BPK", "EPOCH": "2025-12-09T13:38:16.997856", "MEAN_MOTION": 14.07843379, "ECCENTRICITY": 0.024917, "INCLINATION": 74.0593, "RA_OF_ASC_NODE": 192.4512, "ARG_OF_PERICENTER": 211.9153, "MEAN_ANOMALY": 146.6687, "EPHEMERIS_TYPE": 0, "CLASSIFICATION_TYPE": "U", "NORAD_CAT_ID": 37960, "ELEMENT_SET_NO": 999, "REV_AT_EPOCH": 77361, "BSTAR": 0.0012376, "MEAN_MOTION_DOT": 2.763e-05, "MEAN_MOTION_DDOT": 0}, "tle": {"line1": "1 37960U 93036BPK 25343.56825229  .00002763  00000+0  12376-2 0  9990", "line2": "2 37960  74.0593 192.4512 0249170 211.9153 146.6687 14.07843379773612"}}, "geometry": {"type": "Point", "coordinates": [6.188704092028738, 17.22920353282556]}}, {"type": "Feature", "properties": {"norad_id": 37961, "name": "COSMOS 2251 DEB", "group": "cosmos-2251-debris", "lat": -71.64201393962219, "lon": 82.27508451522924, "alt_km": 690.7901754420491, "timestamp": "2025-12-10T05:46:14.224525+00:00", "meta": {"OBJECT_NAME": "COSMOS 2251 DEB", "OBJECT_ID": "1993-036BPL", "EPOCH": "2025-12-09T16:57:58.675104", "MEAN_MOTION": 14.57922217, "ECCENTRICITY": 0.0040786, "INCLINATION": 74.0405, "RA_OF_ASC_NODE": 142.8725, "ARG_OF_PERICENTER": 223.8392, "MEAN_ANOMALY": 135.9533, "EPHEMERIS_TYPE": 0, "CLASSIFICATION_TYPE": "U", "NORAD_CAT_ID": 37961, "ELEMENT_SET_NO": 999, "REV_AT_EPOCH": 80021, "BSTAR": 0.0017845, "MEAN_MOTION_DOT": 8.259e-05, "MEAN_MOTION_DDOT": 0}, "tle": {"line1": "1 37961U 93036BPL 25343.70692911  .00008259  00000+0  17845-2 0  9999", "line2": "2 37961  74.0405 142.8725 0040786 223.8392 135.9533 14.57922217800211"}}, "geometry": {"type": "Point", "coordinates": [82.27508451522924, -71.64201393962219]}}]}